{
    "links": {
        "self": "http://www.neowsapp.com/rest/v1/neo/3545978?api_key=iIulBulltgU6a56xZRHN4H3l9WmuAYTsLGpBGhQ2"
    },
    "id": "3545978",
    "neo_reference_id": "3545978",
    "name": "(2010 RR80)",
    "designation": "2010 RR80",
    "nasa_jpl_url": "http://ssd.jpl.nasa.gov/sbdb.cgi?sstr=3545978",
    "absolute_magnitude_h": 22.4,
    "estimated_diameter": {
        "kilometers": {
            "estimated_diameter_min": 0.0880146521,
            "estimated_diameter_max": 0.1968067451
        },
        "meters": {
            "estimated_diameter_min": 88.0146520901,
            "estimated_diameter_max": 196.8067450894
        },
        "miles": {
            "estimated_diameter_min": 0.0546897524,
            "estimated_diameter_max": 0.122290004
        },
        "feet": {
            "estimated_diameter_min": 288.7619911632,
            "estimated_diameter_max": 645.6914415591
        }
    },
    "is_potentially_hazardous_asteroid": false,
    "close_approach_data": [
        {
            "close_approach_date": "2005-04-19",
            "close_approach_date_full": "2005-Apr-19 16:44",
            "epoch_date_close_approach": 1113929040000,
            "relative_velocity": {
                "kilometers_per_second": "6.631761538",
                "kilometers_per_hour": "23874.3415369512",
                "miles_per_hour": "14834.5873844462"
            },
            "miss_distance": {
                "astronomical": "0.3434235025",
                "lunar": "133.5917424725",
                "kilometers": "51375424.481939675",
                "miles": "31923208.474230515"
            },
            "orbiting_body": "Earth"
        },
        {
            "close_approach_date": "2010-08-29",
            "close_approach_date_full": "2010-Aug-29 20:14",
            "epoch_date_close_approach": 1283112840000,
            "relative_velocity": {
                "kilometers_per_second": "6.8597311073",
                "kilometers_per_hour": "24695.0319862289",
                "miles_per_hour": "15344.5325138876"
            },
            "miss_distance": {
                "astronomical": "0.24748146",
                "lunar": "96.27028794",
                "kilometers": "37022699.2804902",
                "miles": "23004838.58435676"
            },
            "orbiting_body": "Earth"
        },
        {
            "close_approach_date": "2018-03-18",
            "close_approach_date_full": "2018-Mar-18 04:33",
            "epoch_date_close_approach": 1521347580000,
            "relative_velocity": {
                "kilometers_per_second": "8.5704269852",
                "kilometers_per_hour": "30853.5371468738",
                "miles_per_hour": "19171.1881232895"
            },
            "miss_distance": {
                "astronomical": "0.4579686023",
                "lunar": "178.1497862947",
                "kilometers": "68511127.430957101",
                "miles": "42570840.5494899538"
            },
            "orbiting_body": "Earth"
        }
    ],
    "orbital_data": {
        "orbit_id": "11",
        "orbit_determination_date": "2017-04-06 08:56:42",
        "first_observation_date": "2010-09-11",
        "last_observation_date": "2010-10-08",
        "data_arc_in_days": 27,
        "observations_used": 36,
        "orbit_uncertainty": "6",
        "minimum_orbit_intersection": ".228574",
        "jupiter_tisserand_invariant": "4.744",
        "epoch_osculation": "2459000.5",
        "eccentricity": ".1576171201690777",
        "semi_major_axis": "1.387065545962037",
        "inclination": "13.26416388322247",
        "ascending_node_longitude": "352.1780545292454",
        "orbital_period": "596.6833277670714",
        "perihelion_distance": "1.168440269121751",
        "perihelion_argument": "291.9238360087779",
        "aphelion_distance": "1.605690822802322",
        "perihelion_time": "2458949.656610573491",
        "mean_anomaly": "30.67560185071673",
        "mean_motion": ".6033351079997562",
        "equinox": "J2000",
        "orbit_class": {
            "orbit_class_type": "AMO",
            "orbit_class_description": "Near-Earth asteroid orbits similar to that of 1221 Amor",
            "orbit_class_range": "1.017 AU < q (perihelion) < 1.3 AU"
        }
    },
    "is_sentry_object": false
}